FLOCK 1C-3              
1 40041U 14033AH  17360.72845018  .00001209  00000-0  13442-3 0  9991
2 40041  97.9228 273.2770 0013936  23.1337 337.0560 14.88971401191139
POLYITAN-1              
1 40042U 14033AJ  17360.55635438  .00000534  00000-0  63859-4 0  9994
2 40042  97.9162 271.3287 0015468  26.1070 334.0924 14.88265066190524
TIGRISAT                
1 40043U 14033AK  17360.55532981  .00000219  00000-0  39889-4 0  9990
2 40043  97.8315 238.9104 0061016  36.0541 324.4760 14.74076819189175
LEMUR-1                 
1 40044U 14033AL  17360.55931874  .00000239  00000-0  43039-4 0  9999
2 40044  97.8311 238.6014 0060193  37.3291 323.2077 14.73904335189169
AEROCUBE 6A             
1 40045U 14033AM  17360.80741392  .00000554  00000-0  87636-4 0  9993
2 40045  97.8458 240.8664 0059066  30.0335 330.4240 14.75022707189117
AEROCUBE 6B             
1 40046U 14033AN  17360.60403242  .00000510  00000-0  81238-4 0  9995
2 40046  97.8440 240.5769 0058150  30.2998 330.1552 14.75013427188843
UKUBE-1                 
1 40074U 14037F   17361.05059047  .00000313  00000-0  45057-4 0  9990
2 40074  98.3656 124.8891 0005451 137.2764 222.8862 14.83685516187779
BRITE-PL 2              
1 40119U 14049B   17360.82888809  .00000209  00000-0  31395-4 0  9997
2 40119  97.9280  85.6373 0017642 176.3631 183.7715 14.84233790181734
FIREBIRD 4              
1 40378U 15003C   17361.20533121  .00002185  00000-0  93427-4 0  9991
2 40378  99.1071 223.7844 0134366  82.1804 279.4653 15.16526700160250
GRIFEX                  
1 40379U 15003D   17361.18641078  .00001625  00000-0  75114-4 0  9991
2 40379  99.1107 220.7089 0140856  92.3066 269.4296 15.13816662160071
EXOCUBE                 
1 40380U 15003E   17360.84280386  .00001157  00000-0  56930-4 0  9991
2 40380  99.1157 218.6087 0144993  98.9772 262.7896 15.12130758159900
DEORBITSAIL             
1 40719U 15032E   17360.49351170  .00000522  00000-0  82603-4 0  9991
2 40719  97.9618 251.6379 0015228 243.2475 116.7177 14.76286807132691
TIANWANG 1C (TW-1C)     
1 40926U 15051B   17361.08363700  .00009061  00000-0  18495-3 0  9994
2 40926  97.2065  39.3400 0010477 177.9535 239.2561 15.46354015126693
TIANWANG 1B (TW-1B)     
1 40927U 15051C   17361.16197304  .00008889  00000-0  18887-3 0  9991
2 40927  97.2160  39.3426 0009968 188.0681 209.1218 15.45188524126634
TIANWANG 1A (TW-1A)     
1 40928U 15051D   17361.06748574  .00003392  00000-0  93746-4 0  9994
2 40928  97.2060  33.3706 0010770 217.3935 194.7719 15.37669459126323
LEMUR-2-JOEL            
1 40932U 15052C   17359.31550686  .00000902  00000-0  34832-4 0  9995
2 40932   6.0066 303.0306 0014449  84.8026 275.5929 14.77603315121328
LEMUR-2-CHRIS           
1 40933U 15052D   17359.29904483  .00000886  00000-0  32487-4 0  9996
2 40933   6.0034 301.6835 0013591  94.0301 266.2113 14.77757209121336
LEMUR-2-JEROEN          
1 40934U 15052E   17359.75951746  .00000598  00000-0 -58707-5 0  9997
2 40934   6.0035 305.2862 0011255  80.0912 279.5888 14.77096198121302
LEMUR-2-PETER           
1 40935U 15052F   17359.33667004  .00000292  00000-0 -48114-4 0  9994
2 40935   6.0024 309.8712 0009778  96.5395 263.5682 14.76873390121243
EXACTVIEW 9             
1 40936U 15052G   17360.28182218  .00000721  00000-0  11970-4 0  9996
2 40936   6.0008 306.5629 0010622  69.4861 290.6499 14.76334320121370
ATHENOXAT 1             
1 41168U 15077C   17360.93340278  .00002274  00000-0  89202-4 0  9993
2 41168  14.9863 200.6120 0012025 169.8452  46.1887 15.12330932112253
GALASSIA                
1 41170U 15077E   17361.21637053  .00002236  00000-0  85755-4 0  9995
2 41170  14.9875 193.8797 0013245 193.3962 166.6008 15.12753111112346
VELOX 2                 
1 41171U 15077F   17360.09925878  .00001768  00000-0  65355-4 0  9999
2 41171  14.9902 219.0395 0008994 125.9833 234.1322 15.10363147112025
AGGIESAT 4              
1 41313U 98067HP  17360.55368045  .00096717  14739-4  27954-3 0  9993
2 41313  51.6342  84.6125 0000873 295.7893  64.3024 15.92970271109363
HORYU-IV                
1 41340U 16012D   17360.27714268  .00000640  00000-0  42367-4 0  9992
2 41340  31.0064 327.1053 0014232 178.7223 181.3450 15.00844543101896
OUFTI-1                 
1 41458U 16025C   17361.10072958  .00001278  00000-0  71211-4 0  9990
2 41458  98.1594  49.5974 0171895   4.8234 355.4650 15.04086593 91560
E-ST@R-II               
1 41459U 16025D   17361.07941769  .00001973  00000-0  10784-3 0  9991
2 41459  98.1619  49.4764 0172195   5.4614 354.8445 15.03870036 91554
AAUSAT 4                
1 41460U 16025E   17361.14292152  .00002680  00000-0  14384-3 0  9992
2 41460  98.1558  49.8079 0164083   2.4845 357.7164 15.05090198 91602
DIWATA-1                
1 41463U 98067HT  17360.96861271  .00011782  00000-0  11522-3 0  9998
2 41463  51.6397 129.6377 0001605 146.4493 318.1764 15.66641993 94978
FLOCK 2E'-1             
1 41479U 98067HZ  17360.56269801  .00066508  00000-0  30066-3 0  9992
2 41479  51.6316 107.2913 0001663 265.5214  94.5599 15.83344597 92172
FLOCK 2E'-3             
1 41480U 98067JA  17360.78386956  .00064187  00000-0  30928-3 0  9997
2 41480  51.6253 106.4945 0001469 264.5685  95.5149 15.81995019 92198
FLOCK 2E'-2             
1 41481U 98067JB  17334.77617065  .16809613  12434-4  52553-3 0  9990
2 41481  51.6166 233.3710 0007521 225.1371 134.8092 16.44458340 88170
FLOCK 2E-1              
1 41483U 98067JD  17360.54191918  .00038068  00000-0  22241-3 0  9994
2 41483  51.6341 111.7916 0000591 253.7843 106.3093 15.77986230 91960
FLOCK 2E-2              
1 41484U 98067JE  17360.69583465  .00259309  36809-4  71579-3 0  9994
2 41484  51.6285 103.7212 0004732 344.9942  15.0924 15.93405241 92081
FLOCK 2E-3              
1 41486U 98067JG  17360.57706551  .00047350  00000-0  24962-3 0  9991
2 41486  51.6294 111.9691 0000531 298.3398  61.7550 15.80166853 91985
FLOCK 2E-4              
1 41487U 98067JH  17360.74443116  .00118160  00000-0  57622-3 0  9993
2 41487  51.6292 110.0778 0001991  10.0451 350.0591 15.81492728 92029
FLOCK 2E-6              
1 41563U 98067JM  17360.56257941  .00187289  00000-0  69876-3 0  9999
2 41563  51.6298 113.3469 0004440 291.2388  68.8142 15.86894306 90035
FLOCK 2E-5              
1 41564U 98067JN  17360.79619408  .00030295  00000-0  20446-3 0  9999
2 41564  51.6312 115.7248 0001898 226.1564 133.9278 15.74816099 90013
FLOCK 2E-7              
1 41565U 98067JP  17360.57572531  .00057645  00000-0  26485-3 0  9998
2 41565  51.6262 105.8245 0002114 184.2197 175.8789 15.83056023 90029
FLOCK 2E'-5             
1 41567U 98067JR  17360.60090612  .00026750  00000-0  19239-3 0  9991
2 41567  51.6330 119.7224 0003628 159.0384 201.0764 15.73401389 89815
FLOCK 2E'-6             
1 41568U 98067JS  17360.75658882  .00043802  00000-0  25565-3 0  9993
2 41568  51.6284 112.3833 0002682 179.7703 180.3299 15.77940875 89951
FLOCK 2E'-8             
1 41569U 98067JT  17360.54867223  .00065444  00000-0  28560-3 0  9996
2 41569  51.6301 104.9204 0000522 250.0705 110.0242 15.84097055 89912
FLOCK 2E-9              
1 41571U 98067JV  17358.79358663  .07570510  12393-4  99252-3 0  9996
2 41571  51.6107 107.3098 0009920 356.3054   4.2290 16.34648771 89702
FLOCK 2E-10             
1 41572U 98067JW  17360.54899919  .00054152  00000-0  26104-3 0  9993
2 41572  51.6325 107.9993 0001876 187.5418 172.5557 15.82054107 89852
FLOCK 2E-12             
1 41573U 98067JX  17360.55780894  .00067896  00000-0  28571-3 0  9995
2 41573  51.6292 104.9812 0001942 208.2053 151.8846 15.84844912 89891
FLOCK 2E-11             
1 41574U 98067JY  17360.55929409  .00062861  00000-0  27274-3 0  9999
2 41574  51.6230 104.1246 0002656 207.3520 152.7344 15.84231780 89907
FLOCK 2E'-9             
1 41575U 98067JZ  17361.17738315  .00095940  00000-0  32190-3 0  9990
2 41575  51.6264  96.9565 0002978 251.4195 108.6487 15.89327689 90046
FLOCK 2E'-10            
1 41576U 98067KA  17361.15440034  .00086736  00000-0  32772-3 0  9996
2 41576  51.6293 100.7350 0002991 229.1530 130.9216 15.86972584 89891
FLOCK 2E'-11            
1 41577U 98067KB  17360.57335388  .00061396  00000-0  28464-3 0  9995
2 41577  51.6321 106.6774 0002279 183.2437 176.8551 15.82838066 89583
FLOCK 2E'-12            
1 41578U 98067KC  17360.50998513  .00117469  00000-0  36907-3 0  9998
2 41578  51.6223 101.5006 0001862 243.8543 116.2272 15.90550472 89641
FLOCK 2P-6              
1 41606U 16040H   17360.42964106  .00003309  00000-0  14060-3 0  9996
2 41606  97.4371  61.5438 0012033 117.9275 242.3181 15.23698233 83967
FLOCK 2P-11             
1 41608U 16040K   17360.83006109  .00004389  00000-0  18594-3 0  9998
2 41608  97.4367  61.8980 0012083 116.6187 243.6290 15.23612601 83962
FLOCK 2P-2              
1 41609U 16040L   17360.44996328  .00002543  00000-0  10862-3 0  9997
2 41609  97.4370  61.5236 0011960 117.4272 242.8183 15.23744681 83882
FLOCK 2P-9              
1 41610U 16040M   17360.59337519  .00001674  00000-0  72505-4 0  9993
2 41610  97.4368  61.6177 0012249 117.2314 243.0173 15.23736382 83782
FLOCK 2P-4              
1 41611U 16040N   17360.81955080  .00005114  00000-0  21563-3 0  9998
2 41611  97.4395  62.1072 0012180 124.5627 235.6762 15.23694327 83980
FLOCK 2P-10             
1 41612U 16040P   17360.46769970  .00001527  00000-0  66446-4 0  9995
2 41612  97.4401  61.8476 0011976 125.6271 234.6084 15.23721928 83931
FLOCK 2P-8              
1 41613U 16040Q   17360.48544590  .00004180  00000-0  17690-3 0  9991
2 41613  97.4396  61.7950 0012162 124.8767 235.3615 15.23675810 83936
FLOCK 2P-12             
1 41614U 16040R   17360.83984248  .00003266  00000-0  13878-3 0  9997
2 41614  97.4406  62.3100 0011864 123.9078 236.3289 15.23708959 83991
FLOCK 2P-7              
1 41615U 16040S   17360.34767464  .00001128  00000-0  50072-4 0  9996
2 41615  97.4394  61.6542 0012196 126.2048 234.0319 15.23587379 83914
